NORAD_CAT_ID,OBJECT_NAME,OBJECT_TYPE,EPOCH,MEAN_MOTION,ECCENTRICITY,INCLINATION,RA_OF_ASC_NODE,ARG_OF_PERICENTER,MEAN_ANOMALY,BSTAR,MEAN_MOTION_DOT,MEAN_MOTION_DDOT,TLE_LINE0,TLE_LINE1,TLE_LINE2,SEMIMAJOR_AXIS,PERIOD,APOGEE,PERIGEE,DECAYED
53406.0,STARLINK-4533,PAYLOAD,2022-12-01 07:51:37,15.08839183,0.0001735,53.2177,75.8144,50.9735,309.1411,4.3232e-05,4e-06,0.0,0 STARLINK-4533,1 53406U 22097U   22335.32752110  .00000400  00000-0  43232-4 0  9996,2 53406  53.2177  75.8144 0001735  50.9735 309.1411 15.08839183 18340,6917.8830000000025,95.438,540.948,538.548,0.0
53406.0,STARLINK-4533,PAYLOAD,2022-12-01 15:48:33,15.08838427,0.0001769,53.2173,74.3276,48.137,311.9773,3.1876e-05,2.19e-06,0.0,0 STARLINK-4533,1 53406U 22097U   22335.65872226  .00000219  00000-0  31876-4 0  9992,2 53406  53.2173  74.3276 0001769  48.1370 311.9773 15.08838427 18394,6917.885,95.438,540.974,538.526,0.0
53406.0,STARLINK-4533,PAYLOAD,2022-12-01 23:45:28,15.08846309,0.000185,53.2162,72.8399,38.6073,321.5051,0.00012384,1.684e-05,0.0,0 STARLINK-4533,1 53406U 22097U   22335.98991324  .00001684  00000-0  12384-3 0  9998,2 53406  53.2162  72.8399 0001850  38.6073 321.5051 15.08846309 17951,6917.861,95.437,541.006,538.446,0.0
53406.0,STARLINK-4533,PAYLOAD,2022-12-02 06:07:01,15.08846219,0.0001884,53.217,71.65100000000002,39.2491,320.8638,5.8247e-05,6.39e-06,0.0,0 STARLINK-4533,1 53406U 22097U   22336.25487542  .00000639  00000-0  58247-4 0  9999,2 53406  53.2170  71.6510 0001884  39.2491 320.8638 15.08846219 18482,6917.861,95.437,541.03,538.423,0.0
53406.0,STARLINK-4533,PAYLOAD,2022-12-03 05:57:49,15.08835099,0.0001985,53.2175,67.1909,42.3704,317.7442,-4.637300000000001e-05,-1.026e-05,0.0,0 STARLINK-4533,1 53406U 22097U   22337.24848528 -.00001026  00000-0 -46373-4 0  9994,2 53406  53.2175  67.1909 0001985  42.3704 317.7442 15.08835099 18148,6917.895,95.438,541.134,538.387,0.0
53406.0,STARLINK-4533,PAYLOAD,2022-12-03 12:19:21,15.0883402,0.0001933,53.2171,66.0014,41.9815,318.1325,-5.4141e-05,-1.15e-05,0.0,0 STARLINK-4533,1 53406U 22097U   22337.51344653 -.00001150  00000-0 -54141-4 0  9994,2 53406  53.2171  66.0014 0001933  41.9815 318.1325 15.08834020 18676,6917.899,95.438,541.101,538.4259999999998,0.0
53406.0,STARLINK-4533,PAYLOAD,2022-12-03 23:27:03,15.08842437,0.0001988,53.217,63.9199,43.1198,316.995,-3.8949e-05,-9.08e-06,0.0,0 STARLINK-4533,1 53406U 22097U   22337.97712088 -.00000908  00000-0 -38949-4 0  9993,2 53406  53.2170  63.9199 0001988  43.1198 316.9950 15.08842437 18258,6917.873000000001,95.437,541.113,538.363,0.0
53406.0,STARLINK-4533,PAYLOAD,2022-12-04 08:59:22,15.08835842,0.0001985,53.2173,62.135,46.7157,313.4,-5.7622e-05,-1.205e-05,0.0,0 STARLINK-4533,1 53406U 22097U   22338.37456557 -.00001205  00000-0 -57622-4 0  9994,2 53406  53.2173  62.1350 0001985  46.7157 313.4000 15.08835842 18319,6917.893,95.438,541.131,538.385,0.0
53406.0,STARLINK-4533,PAYLOAD,2022-12-04 12:10:08,15.08834713,0.000202,53.2172,61.5403,46.6094,313.5066,-6.750199999999999e-05,-1.362e-05,0.0,0 STARLINK-4533,1 53406U 22097U   22338.50704695 -.00001362  00000-0 -67502-4 0  9990,2 53406  53.2172  61.5403 0002020  46.6094 313.5066 15.08834713 18825,6917.897,95.438,541.159,538.364,0.0
53406.0,STARLINK-4533,PAYLOAD,2022-12-04 15:20:55,15.08834093,0.0002076,53.2163,60.9452,48.8132,311.3039,-8.2703e-06,-4.2e-06,0.0,0 STARLINK-4533,1 53406U 22097U   22338.63952572 -.00000420  00000-0 -82703-5 0  9998,2 53406  53.2163  60.9452 0002076  48.8132 311.3039 15.08834093 18849,6917.898,95.438,541.2,538.327,0.0
53406.0,STARLINK-4533,PAYLOAD,2022-12-04 23:17:50,15.08838836,0.0002122,53.2179,59.46,45.6751,314.4415,8.655200000000001e-05,1.089e-05,0.0,0 STARLINK-4533,1 53406U 22097U   22338.97071965  .00001089  00000-0  86552-4 0  9998,2 53406  53.2179  59.4600 0002122  45.6751 314.4415 15.08838836 18401,6917.884,95.438,541.217,538.281,0.0
53406.0,STARLINK-4533,PAYLOAD,2022-12-05 05:39:21,15.08848029,0.0002056,53.2167,58.2688,46.7287,313.3877,0.00015547,2.188e-05,0.0,0 STARLINK-4533,1 53406U 22097U   22339.23567055  .00002188  00000-0  15547-3 0  9994,2 53406  53.2167  58.2688 0002056  46.7287 313.3877 15.08848029 18442,6917.856,95.437,541.143,538.299,0.0
53406.0,STARLINK-4533,PAYLOAD,2022-12-05 16:47:03,15.08847789,0.0002106,53.2171,56.1878,44.2598,315.8563,0.00011266,1.506e-05,0.0,0 STARLINK-4533,1 53406U 22097U   22339.69935013  .00001506  00000-0  11266-3 0  9994,2 53406  53.2171  56.1878 0002106  44.2598 315.8563 15.08847789 19003,6917.857,95.437,541.178,538.265,0.0
53406.0,STARLINK-4533,PAYLOAD,2022-12-06 05:30:09,15.08839452,0.000218,53.2169,53.8095,42.2291,317.8868,7.340399999999999e-05,8.8e-06,0.0,0 STARLINK-4533,1 53406U 22097U   22340.22927448  .00000880  00000-0  73404-4 0  9995,2 53406  53.2169  53.8095 0002180  42.2291 317.8868 15.08839452 18596,6917.882,95.438,541.255,538.239,0.0
53406.0,STARLINK-4533,PAYLOAD,2022-12-06 11:51:42,15.08829499,0.0002077,53.2171,52.6196,42.5549,317.5603,-3.5931e-05,-8.599999999999999e-06,0.0,0 STARLINK-4533,1 53406U 22097U   22340.49424475 -.00000860  00000-0 -35931-4 0  9999,2 53406  53.2171  52.6196 0002077  42.5549 317.5603 15.08829499 18631,6917.9119999999975,95.438,541.214,538.341,0.0
53406.0,STARLINK-4533,PAYLOAD,2022-12-07 11:42:35,15.08770015,0.0002253,53.2186,48.1622,14.6123,345.4934,-0.00071477,-0.00011624,0.0,0 STARLINK-4533,1 53406U 22097U   22341.48790842 -.00011624  00000-0 -71477-3 0  9997,2 53406  53.2186  48.1622 0002253  14.6123 345.4934 15.08770015 18787,6918.094,95.442,541.518,538.401,0.0
53406.0,STARLINK-4533,PAYLOAD,2022-12-08 05:11:44,15.08839248,0.0001914,53.2184,44.89100000000001,37.4461,322.6664,6.9914e-05,8.25e-06,0.0,0 STARLINK-4533,1 53406U 22097U   22342.21648390  .00000825  00000-0  69914-4 0  9992,2 53406  53.2184  44.8910 0001914  37.4461 322.6664 15.08839248 18892,6917.8830000000025,95.438,541.072,538.424,0.0
53406.0,STARLINK-4533,PAYLOAD,2022-12-08 11:33:18,15.08824368,0.0001852,53.2189,43.7042,42.7628,317.3508,-0.00030043,-5.064e-05,0.0,0 STARLINK-4533,1 53406U 22097U   22342.48146644 -.00005064  00000-0 -30043-3 0  9998,2 53406  53.2189  43.7042 0001852  42.7628 317.3508 15.08824368 19421,6917.928000000001,95.439,541.0740000000002,538.512,0.0
53406.0,STARLINK-4533,PAYLOAD,2022-12-08 21:05:23,15.08977529,0.0002218,53.2183,41.9181,310.9495,49.1305,0.0015645,0.00024793,0.0,0 STARLINK-4533,1 53406U 22097U   22342.87874794  .00024793  00000-0  15645-2 0  9993,2 53406  53.2183  41.9181 0002218 310.9495  49.1305 15.08977529 18992,6917.46,95.429,540.859,537.7909999999998,0.0
53406.0,STARLINK-4533,PAYLOAD,2022-12-09 16:10:22,15.0874733,0.0002893,53.218,38.3519,32.6972,327.4199,-0.0011431,-0.0001839,0.0,0 STARLINK-4533,1 53406U 22097U   22343.67386606 -.00018390  00000-0 -11431-2 0  9999,2 53406  53.2180  38.3519 0002893  32.6972 327.4199 15.08747330 19114,6918.1640000000025,95.443,542.03,538.0269999999998,0.0
53406.0,STARLINK-4533,PAYLOAD,2022-12-10 04:53:20,15.08830326,0.000199,53.2173,35.9674,36.0599,324.0527,-0.00015155,-2.699e-05,0.0,0 STARLINK-4533,1 53406U 22097U   22344.20371298 -.00002699  00000-0 -15155-3 0  9993,2 53406  53.2173  35.9674 0001990  36.0599 324.0527 15.08830326 19195,6917.91,95.438,541.1519999999998,538.398,0.0
53406.0,STARLINK-4533,PAYLOAD,2022-12-10 11:14:53,15.08836468,0.0002369,53.218,34.7793,32.3111,327.8026,-8.4011e-05,-1.625e-05,0.0,0 STARLINK-4533,1 53406U 22097U   22344.46866902 -.00001625  00000-0 -84011-4 0  9998,2 53406  53.2180  34.7793 0002369  32.3111 327.8026 15.08836468 19729,6917.891,95.438,541.395,538.117,0.0
53406.0,STARLINK-4533,PAYLOAD,2022-12-11 03:08:43,15.08853356,0.000215,53.217,31.8048,28.8316,331.2795,-2.4395e-05,-6.77e-06,0.0,0 STARLINK-4533,1 53406U 22097U   22345.13105754 -.00000677  00000-0 -24395-4 0  9999,2 53406  53.2170  31.8048 0002150  28.8316 331.2795 15.08853356 19338,6917.84,95.437,541.192,538.217,0.0
53406.0,STARLINK-4533,PAYLOAD,2022-12-11 09:30:15,15.08841035,0.0002412,53.2172,30.6161,32.813,327.3012,0.00024806,3.662e-05,0.0,0 STARLINK-4533,1 53406U 22097U   22345.39601593  .00003662  00000-0  24806-3 0  9990,2 53406  53.2172  30.6161 0002412  32.8130 327.3012 15.08841035 19860,6917.877,95.437,541.411,538.0740000000002,0.0
53406.0,STARLINK-4533,PAYLOAD,2022-12-12 02:59:30,15.08838199,0.0002492,53.2171,27.3454,34.0777,326.0374,0.00017402,2.482e-05,0.0,0 STARLINK-4533,1 53406U 22097U   22346.12466065  .00002482  00000-0  17402-3 0  9998,2 53406  53.2171  27.3454 0002492  34.0777 326.0374 15.08838199 19488,6917.886,95.438,541.475,538.0269999999998,0.0
53406.0,STARLINK-4533,PAYLOAD,2022-12-12 07:45:39,15.08841357,0.0002183,53.2177,26.4531,38.7946,321.3203,0.00013107,1.798e-05,0.0,0 STARLINK-4533,1 53406U 22097U   22346.32337896  .00001798  00000-0  13107-3 0  9996,2 53406  53.2177  26.4531 0002183  38.7946 321.3203 15.08841357 20005,6917.876,95.437,541.251,538.231,0.0
53406.0,STARLINK-4533,PAYLOAD,2022-12-12 14:07:12,15.08842203,0.0002822,53.2184,25.2658,25.8163,334.2969,7.5361e-05,9.11e-06,0.0,0 STARLINK-4533,1 53406U 22097U   22346.58834171  .00000911  00000-0  75361-4 0  9999,2 53406  53.2184  25.2658 0002822  25.8163 334.2969 15.08842203 20045,6917.874,95.437,541.691,537.786,0.0
53406.0,STARLINK-4533,PAYLOAD,2022-12-13 09:11:49,15.08851395,0.0002214,53.2176,21.6951,30.0623,330.0496,-7.3144e-05,-1.453e-05,0.0,0 STARLINK-4533,1 53406U 22097U   22347.38321519 -.00001453  00000-0 -73144-4 0  9996,2 53406  53.2176  21.6951 0002214  30.0623 330.0496 15.08851395 19674,6917.846,95.437,541.242,538.179,0.0
53406.0,STARLINK-4533,PAYLOAD,2022-12-13 12:22:36,15.08847191,0.0002196,53.217,21.1009,34.8667,325.2469,-7.396e-05,-1.465e-05,0.0,0 STARLINK-4533,1 53406U 22097U   22347.51569679 -.00001465  00000-0 -73960-4 0  9991,2 53406  53.2170  21.1009 0002196  34.8667 325.2469 15.08847191 20189,6917.858,95.437,541.243,538.2040000000002,0.0
